DMSP 5D-3 F16 (USA 172) 
1 28054U 03048A   26171.30152778 -.00000042  00000+0  16470-5 0  9993
2 28054  98.9889 195.1506 0007883 132.4013  53.5008 14.14483128169923
METEOSAT-9 (MSG-2)      
1 28912U 05049B   26170.92883707  .00000115  00000+0  00000+0 0  9995
2 28912   9.3683  54.1432 0001774 346.4633 247.5699  1.00273646  7020
DMSP 5D-3 F17 (USA 191) 
1 29522U 06050A   26171.28099334 -.00000015  00000+0  14563-4 0  9995
2 29522  98.7378 177.7878 0011069  51.3742 308.8421 14.14993167 12866
FENGYUN 3A              
1 32958U 08026A   26171.28957392  .00000056  00000+0  46890-4 0  9996
2 32958  98.6883 112.0648 0009695 115.5720 244.6460 14.19571691935842
GOES 14                 
1 35491U 09033A   26171.27712293 -.00000308  00000+0  00000+0 0  9997
2 35491   1.6991  83.0091 0001916  12.9216  52.3600  1.00110077  6626
DMSP 5D-3 F18 (USA 210) 
1 35951U 09057A   26171.25257665  .00000214  00000+0  13406-3 0  9992
2 35951  98.9038 152.0150 0009959 239.7125 120.3063 14.14898458860020
EWS-G2 (GOES 15)        
1 36411U 10008A   26171.11943681  .00000015  00000+0  00000+0 0  9998
2 36411   1.2866  82.8036 0004924  42.0631 250.1257  1.00266729 59663
COMS 1                  
1 36744U 10032A   26171.12316774  .00000087  00000+0  00000+0 0  9991
2 36744   4.8136  75.3217 0011649  12.3209 286.7612  0.99163259 51115
FENGYUN 3B              
1 37214U 10059A   26171.28810241  .00000259  00000+0  15742-3 0  9992
2 37214  98.9611 217.3163 0022130 175.2547 317.8614 14.14842433807868
SUOMI NPP               
1 37849U 11061A   26171.30095768  .00000062  00000+0  50509-4 0  9995
2 37849  98.7953 112.1558 0001356 359.4380   0.6794 14.19517972758882
METEOSAT-10 (MSG-3)     
1 38552U 12035B   26171.03561044 -.00000013  00000+0  00000+0 0  9997
2 38552   4.6793  61.0121 0001484   2.4454 217.8971  1.00266543 50884
METOP-B                 
1 38771U 12049A   26171.28683890  .00000061  00000+0  47761-4 0  9998
2 38771  98.6502 222.7241 0002048  11.1813 348.9410 14.21440199713709
INSAT-3D                
1 39216U 13038B   26171.27504292 -.00000345  00000+0  00000+0 0  9995
2 39216   1.9351  82.5055 0000637 326.5441  87.9271  1.00267986 47114
FENGYUN 3C              
1 39260U 13052A   26171.22412083  .00000042  00000+0  42299-4 0  9995
2 39260  98.4987 144.9595 0015064  19.3025 340.8717 14.15755651658997
METEOR-M 2              
1 40069U 14037A   26171.24276317  .00000193  00000+0  10751-3 0  9992
2 40069  98.5120 146.8735 0006649  36.7931 323.3702 14.21462746619759
HIMAWARI-8              
1 40267U 14060A   26171.16850255 -.00000281  00000+0  00000+0 0  9999
2 40267   0.0178  50.0678 0001151  42.8802  16.7579  1.00270857 42792
FENGYUN 2G              
1 40367U 14090A   26170.77009894 -.00000310  00000+0  00000+0 0  9997
2 40367   5.6465  72.7874 0003825 158.5034  53.6178  1.00270908 42022
METEOSAT-11 (MSG-4)     
1 40732U 15034A   26171.25136351  .00000057  00000+0  00000+0 0  9992
2 40732   3.2085  71.0884 0002400 346.4554 310.9984  1.00264017  7249
ELEKTRO-L 2             
1 41105U 15074A   26169.03651196 -.00000126  00000+0  00000+0 0  9991
2 41105   6.6975  70.5132 0000902 256.1704 298.2263  1.00270556 38515
SENTINEL-3A             
1 41335U 16011A   26171.30227071  .00000055  00000+0  40659-4 0  9991
2 41335  98.6248 238.6412 0001417  99.3436 260.7905 14.26733410538509
INSAT-3DR               
1 41752U 16054A   26171.12151682 -.00000082  00000+0  00000+0 0  9997
2 41752   0.1141  86.2276 0010441 187.5331 112.2857  1.00271259 35840
HIMAWARI-9              
1 41836U 16064A   26170.92085015 -.00000280  00000+0  00000+0 0  9994
2 41836   0.0183 317.4058 0000767 146.4710 276.5209  1.00272997 35238
GOES 16                 
1 41866U 16071A   26171.19511013 -.00000096  00000+0  00000+0 0  9992
2 41866   0.3500  85.5197 0000300 337.7159 170.7159  1.00271415 35131
FENGYUN 4A              
1 41882U 16077A   26171.27391625 -.00000362  00000+0  00000+0 0  9996
2 41882   2.3315  80.2519 0008638 153.6184 256.9413  1.00266979 34969
CYGFM05                 
1 41884U 16078A   26171.25758979  .00019561  00000+0  26400-3 0  9992
2 41884  34.9558 240.2560 0007347 181.2687 178.8019 15.56787575529235
CYGFM04                 
1 41885U 16078B   26171.21862723  .00025121  00000+0  28128-3 0  9990
2 41885  34.9310 208.0507 0007077 221.8497 138.1688 15.61654948529475
CYGFM02                 
1 41886U 16078C   26171.27728871  .00028938  00000+0  28742-3 0  9993
2 41886  34.9391 202.1043 0008086 223.7763 136.2323 15.64670787529650
CYGFM01                 
1 41887U 16078D   26171.30905894  .00020338  00000+0  26751-3 0  9994
2 41887  34.9389 240.9472 0007061 175.8238 184.2546 15.57471223529195
CYGFM08                 
1 41888U 16078E   26171.26317363  .00022773  00000+0  27019-3 0  9991
2 41888  34.9418 220.7489 0008734 205.8106 154.2184 15.60153498529458
CYGFM07                 
1 41890U 16078G   26171.22212592  .00023193  00000+0  27428-3 0  9999
2 41890  34.9432 209.3606 0007498 220.8995 139.1168 15.60249235529471
CYGFM03                 
1 41891U 16078H   26171.19314605  .00022582  00000+0  26721-3 0  9990
2 41891  34.9388 211.4902 0006916 209.3291 150.7047 15.60242001529446
