OBJECT_NAME,OBJECT_ID,EPOCH,MEAN_MOTION,ECCENTRICITY,INCLINATION,RA_OF_ASC_NODE,ARG_OF_PERICENTER,MEAN_ANOMALY,EPHEMERIS_TYPE,CLASSIFICATION_TYPE,NORAD_CAT_ID,ELEMENT_SET_NO,REV_AT_EPOCH,BSTAR,MEAN_MOTION_DOT,MEAN_MOTION_DDOT
DMSP 5D-3 F16 (USA 172),2003-048A,2026-06-20T07:14:12.000192,14.14483128,.00078838,98.9889,195.1506,132.4013,53.5008,0,U,28054,999,16992,.1646968E-5,-.42E-6,0
METEOSAT-9 (MSG-2),2005-049B,2026-06-19T22:17:31.522848,1.00273646,.00017746,9.3683,54.1432,346.4633,247.5699,0,U,28912,999,702,0,.115E-5,0
DMSP 5D-3 F17 (USA 191),2006-050A,2026-06-20T06:44:37.824576,14.14993167,.0011069,98.7378,177.7878,51.3742,308.8421,0,U,29522,999,1286,.14562964E-4,-.15E-6,0
FENGYUN 3A,2008-026A,2026-06-20T06:56:59.186688,14.19571691,.00096959,98.6883,112.0648,115.5720,244.6460,0,U,32958,999,93584,.46890392E-4,.56E-6,0
GOES 14,2009-033A,2026-06-20T06:39:03.421152,1.00110077,.00019162,1.6991,83.0091,12.9216,52.3600,0,U,35491,999,662,0,-.308E-5,0
DMSP 5D-3 F18 (USA 210),2009-057A,2026-06-20T06:03:42.622560,14.14898458,.00099595,98.9038,152.0150,239.7125,120.3063,0,U,35951,999,86002,.13406432E-3,.214E-5,0
EWS-G2 (GOES 15),2010-008A,2026-06-20T02:51:59.340384,1.00266729,.0004924,1.2866,82.8036,42.0631,250.1257,0,U,36411,999,5966,0,.15E-6,0
COMS 1,2010-032A,2026-06-20T02:57:21.692736,0.99163259,.00116495,4.8136,75.3217,12.3209,286.7612,0,U,36744,999,5111,0,.87E-6,0
FENGYUN 3B,2010-059A,2026-06-20T06:54:52.048224,14.14842433,.002213,98.9611,217.3163,175.2547,317.8614,0,U,37214,999,80786,.1574241E-3,.259E-5,0
SUOMI NPP,2011-061A,2026-06-20T07:13:22.743552,14.19517972,.00013563,98.7953,112.1558,359.4380,0.6794,0,U,37849,999,75888,.50508631E-4,.62E-6,0
METEOSAT-10 (MSG-3),2012-035B,2026-06-20T00:51:16.742016,1.00266543,.00014843,4.6793,61.0121,2.4454,217.8971,0,U,38552,999,5088,0,-.13E-6,0
METOP-B,2012-049A,2026-06-20T06:53:02.880960,14.21440199,.00020486,98.6502,222.7241,11.1813,348.9410,0,U,38771,999,71370,.47760909E-4,.61E-6,0
INSAT-3D,2013-038B,2026-06-20T06:36:03.708288,1.00267986,.00006377,1.9351,82.5055,326.5441,87.9271,0,U,39216,999,4711,0,-.345E-5,0
FENGYUN 3C,2013-052A,2026-06-20T05:22:44.039712,14.15755651,.00150648,98.4987,144.9595,19.3025,340.8717,0,U,39260,999,65899,.42299494E-4,.42E-6,0
METEOR-M 2,2014-037A,2026-06-20T05:49:34.737888,14.21462746,.00066495,98.5120,146.8735,36.7931,323.3702,0,U,40069,999,61975,.1075052E-3,.193E-5,0
HIMAWARI-8,2014-060A,2026-06-20T04:02:38.620320,1.00270857,.00011516,0.0178,50.0678,42.8802,16.7579,0,U,40267,999,4279,0,-.281E-5,0
FENGYUN 2G,2014-090A,2026-06-19T18:28:56.548416,1.00270908,.00038255,5.6465,72.7874,158.5034,53.6178,0,U,40367,999,4202,0,-.31E-5,0
METEOSAT-11 (MSG-4),2015-034A,2026-06-20T06:01:57.807264,1.00264017,.00024001,3.2085,71.0884,346.4554,310.9984,0,U,40732,999,724,0,.57E-6,0
ELEKTRO-L 2,2015-074A,2026-06-18T00:52:34.633344,1.00270556,.00009025,6.6975,70.5132,256.1704,298.2263,0,U,41105,999,3851,0,-.126E-5,0
SENTINEL-3A,2016-011A,2026-06-20T07:15:16.189344,14.26733410,.00014177,98.6248,238.6412,99.3436,260.7905,0,U,41335,999,53850,.40659171E-4,.55E-6,0
INSAT-3DR,2016-054A,2026-06-20T02:54:59.053248,1.00271259,.0010441,0.1141,86.2276,187.5331,112.2857,0,U,41752,999,3584,0,-.82E-6,0
HIMAWARI-9,2016-064A,2026-06-19T22:06:01.452960,1.00272997,.00007679,0.0183,317.4058,146.4710,276.5209,0,U,41836,999,3523,0,-.28E-5,0
GOES 16,2016-071A,2026-06-20T04:40:57.515232,1.00271415,.00003006,0.3500,85.5197,337.7159,170.7159,0,U,41866,999,3513,0,-.96E-6,0
FENGYUN 4A,2016-077A,2026-06-20T06:34:26.364000,1.00266979,.00086381,2.3315,80.2519,153.6184,256.9413,0,U,41882,999,3496,0,-.362E-5,0
CYGFM05,2016-078A,2026-06-20T06:10:55.757856,15.56787575,.00073474,34.9558,240.2560,181.2687,178.8019,0,U,41884,999,52923,.26400384E-3,.19561E-3,0
CYGFM04,2016-078B,2026-06-20T05:14:49.392672,15.61654948,.00070777,34.9310,208.0507,221.8497,138.1688,0,U,41885,999,52947,.28127977E-3,.25121E-3,0
CYGFM02,2016-078C,2026-06-20T06:39:17.744544,15.64670787,.0008086,34.9391,202.1043,223.7763,136.2323,0,U,41886,999,52965,.28742198E-3,.28938E-3,0
CYGFM01,2016-078D,2026-06-20T07:25:02.692416,15.57471223,.00070617,34.9389,240.9472,175.8238,184.2546,0,U,41887,999,52919,.2675114E-3,.20338E-3,0
CYGFM08,2016-078E,2026-06-20T06:18:58.201632,15.60153498,.00087345,34.9418,220.7489,205.8106,154.2184,0,U,41888,999,52945,.2701888E-3,.22773E-3,0
CYGFM07,2016-078G,2026-06-20T05:19:51.679488,15.60249235,.00074983,34.9432,209.3606,220.8995,139.1168,0,U,41890,999,52947,.27427676E-3,.23193E-3,0
CYGFM03,2016-078H,2026-06-20T04:38:07.818720,15.60242001,.00069164,34.9388,211.4902,209.3291,150.7047,0,U,41891,999,52944,.26721146E-3,.22582E-3,0
